CCSDS_OMM_VERS = 2.0
CREATION_DATE  = 
ORIGINATOR     = 

OBJECT_NAME    = STARLINK-37052
OBJECT_ID      = 2026-050N
CENTER_NAME    = EARTH
REF_FRAME      = TEME
TIME_SYSTEM    = UTC
MEAN_ELEMENT_THEORY = SGP/SGP4

EPOCH          = 2026-04-03T06:32:05.846496
MEAN_MOTION    = 15.80906756
ECCENTRICITY   = .00017706
INCLINATION    = 53.1573
RA_OF_ASC_NODE = 158.5382
ARG_OF_PERICENTER = 51.4320
MEAN_ANOMALY   = 308.6861

EPHEMERIS_TYPE = 0
CLASSIFICATION_TYPE = U
NORAD_CAT_ID   = 68179
ELEMENT_SET_NO = 999
REV_AT_EPOCH   = 436
BSTAR          = .79001126E-3
MEAN_MOTION_DOT = .158364E-2
MEAN_MOTION_DDOT = 0

CCSDS_OMM_VERS = 2.0
CREATION_DATE  = 
ORIGINATOR     = 

OBJECT_NAME    = STARLINK-37035
OBJECT_ID      = 2026-050P
CENTER_NAME    = EARTH
REF_FRAME      = TEME
TIME_SYSTEM    = UTC
MEAN_ELEMENT_THEORY = SGP/SGP4

EPOCH          = 2026-04-03T06:31:01.156224
MEAN_MOTION    = 15.80888126
ECCENTRICITY   = .00013888
INCLINATION    = 53.1574
RA_OF_ASC_NODE = 158.5332
ARG_OF_PERICENTER = 98.2172
MEAN_ANOMALY   = 261.9008

EPHEMERIS_TYPE = 0
CLASSIFICATION_TYPE = U
NORAD_CAT_ID   = 68180
ELEMENT_SET_NO = 999
REV_AT_EPOCH   = 436
BSTAR          = .64538975E-3
MEAN_MOTION_DOT = .128685E-2
MEAN_MOTION_DDOT = 0

CCSDS_OMM_VERS = 2.0
CREATION_DATE  = 
ORIGINATOR     = 

OBJECT_NAME    = STARLINK-37032
OBJECT_ID      = 2026-050Q
CENTER_NAME    = EARTH
REF_FRAME      = TEME
TIME_SYSTEM    = UTC
MEAN_ELEMENT_THEORY = SGP/SGP4

EPOCH          = 2026-04-03T06:29:56.325984
MEAN_MOTION    = 15.80858995
ECCENTRICITY   = .00019117
INCLINATION    = 53.1577
RA_OF_ASC_NODE = 158.5283
ARG_OF_PERICENTER = 68.3724
MEAN_ANOMALY   = 291.7502

EPHEMERIS_TYPE = 0
CLASSIFICATION_TYPE = U
NORAD_CAT_ID   = 68181
ELEMENT_SET_NO = 999
REV_AT_EPOCH   = 436
BSTAR          = .12746925E-3
MEAN_MOTION_DOT = .24515E-3
MEAN_MOTION_DDOT = 0

CCSDS_OMM_VERS = 2.0
CREATION_DATE  = 
ORIGINATOR     = 

OBJECT_NAME    = STARLINK-37082
OBJECT_ID      = 2026-050R
CENTER_NAME    = EARTH
REF_FRAME      = TEME
TIME_SYSTEM    = UTC
MEAN_ELEMENT_THEORY = SGP/SGP4

EPOCH          = 2026-04-03T06:28:51.427488
MEAN_MOTION    = 15.80896933
ECCENTRICITY   = .00012723
INCLINATION    = 53.1576
RA_OF_ASC_NODE = 158.5226
ARG_OF_PERICENTER = 84.9456
MEAN_ANOMALY   = 275.1712

EPHEMERIS_TYPE = 0
CLASSIFICATION_TYPE = U
NORAD_CAT_ID   = 68182
ELEMENT_SET_NO = 999
REV_AT_EPOCH   = 436
BSTAR          = .68158232E-3
MEAN_MOTION_DOT = .136113E-2
MEAN_MOTION_DDOT = 0

CCSDS_OMM_VERS = 2.0
CREATION_DATE  = 
ORIGINATOR     = 

OBJECT_NAME    = STARLINK-37102
OBJECT_ID      = 2026-050S
CENTER_NAME    = EARTH
REF_FRAME      = TEME
TIME_SYSTEM    = UTC
MEAN_ELEMENT_THEORY = SGP/SGP4

EPOCH          = 2026-04-03T06:27:46.358784
MEAN_MOTION    = 15.80906613
ECCENTRICITY   = .00011741
INCLINATION    = 53.1574
RA_OF_ASC_NODE = 158.5175
ARG_OF_PERICENTER = 91.1928
MEAN_ANOMALY   = 268.9230

EPHEMERIS_TYPE = 0
CLASSIFICATION_TYPE = U
NORAD_CAT_ID   = 68183
ELEMENT_SET_NO = 999
REV_AT_EPOCH   = 436
BSTAR          = .55073485E-3
MEAN_MOTION_DOT = .109557E-2
MEAN_MOTION_DDOT = 0

CCSDS_OMM_VERS = 2.0
CREATION_DATE  = 
ORIGINATOR     = 

OBJECT_NAME    = STARLINK-36964
OBJECT_ID      = 2026-050T
CENTER_NAME    = EARTH
REF_FRAME      = TEME
TIME_SYSTEM    = UTC
MEAN_ELEMENT_THEORY = SGP/SGP4

EPOCH          = 2026-04-03T06:26:41.767008
MEAN_MOTION    = 15.80903430
ECCENTRICITY   = .00011872
INCLINATION    = 53.1574
RA_OF_ASC_NODE = 158.5125
ARG_OF_PERICENTER = 66.9473
MEAN_ANOMALY   = 293.1675

EPHEMERIS_TYPE = 0
CLASSIFICATION_TYPE = U
NORAD_CAT_ID   = 68184
ELEMENT_SET_NO = 999
REV_AT_EPOCH   = 436
BSTAR          = .71478382E-3
MEAN_MOTION_DOT = .142934E-2
MEAN_MOTION_DDOT = 0

CCSDS_OMM_VERS = 2.0
CREATION_DATE  = 
ORIGINATOR     = 

OBJECT_NAME    = STARLINK-37061
OBJECT_ID      = 2026-050U
CENTER_NAME    = EARTH
REF_FRAME      = TEME
TIME_SYSTEM    = UTC
MEAN_ELEMENT_THEORY = SGP/SGP4

EPOCH          = 2026-04-03T06:25:37.297920
MEAN_MOTION    = 15.80828120
ECCENTRICITY   = .00012138
INCLINATION    = 53.1579
RA_OF_ASC_NODE = 158.5077
ARG_OF_PERICENTER = 68.6405
MEAN_ANOMALY   = 291.4747

EPHEMERIS_TYPE = 0
CLASSIFICATION_TYPE = U
NORAD_CAT_ID   = 68185
ELEMENT_SET_NO = 999
REV_AT_EPOCH   = 436
BSTAR          = .664445E-5
MEAN_MOTION_DOT = .61E-5
MEAN_MOTION_DDOT = 0

CCSDS_OMM_VERS = 2.0
CREATION_DATE  = 
ORIGINATOR     = 

OBJECT_NAME    = STARLINK-37079
OBJECT_ID      = 2026-050V
CENTER_NAME    = EARTH
REF_FRAME      = TEME
TIME_SYSTEM    = UTC
MEAN_ELEMENT_THEORY = SGP/SGP4

EPOCH          = 2026-04-03T06:24:32.377824
MEAN_MOTION    = 15.80852334
ECCENTRICITY   = .00011332
INCLINATION    = 53.1576
RA_OF_ASC_NODE = 158.5028
ARG_OF_PERICENTER = 70.6819
MEAN_ANOMALY   = 289.4326

EPHEMERIS_TYPE = 0
CLASSIFICATION_TYPE = U
NORAD_CAT_ID   = 68186
ELEMENT_SET_NO = 999
REV_AT_EPOCH   = 436
BSTAR          = .29197298E-3
MEAN_MOTION_DOT = .57255E-3
MEAN_MOTION_DDOT = 0

CCSDS_OMM_VERS = 2.0
CREATION_DATE  = 
ORIGINATOR     = 

OBJECT_NAME    = STARLINK-37006
OBJECT_ID      = 2026-050W
CENTER_NAME    = EARTH
REF_FRAME      = TEME
TIME_SYSTEM    = UTC
MEAN_ELEMENT_THEORY = SGP/SGP4

EPOCH          = 2026-04-03T06:23:27.397248
MEAN_MOTION    = 15.80852752
ECCENTRICITY   = .00010243
INCLINATION    = 53.1575
RA_OF_ASC_NODE = 158.4976
ARG_OF_PERICENTER = 69.8402
MEAN_ANOMALY   = 290.2730

EPHEMERIS_TYPE = 0
CLASSIFICATION_TYPE = U
NORAD_CAT_ID   = 68187
ELEMENT_SET_NO = 999
REV_AT_EPOCH   = 436
BSTAR          = .32763624E-3
MEAN_MOTION_DOT = .64388E-3
MEAN_MOTION_DDOT = 0

CCSDS_OMM_VERS = 2.0
CREATION_DATE  = 
ORIGINATOR     = 

OBJECT_NAME    = STARLINK-36340
OBJECT_ID      = 2026-050X
CENTER_NAME    = EARTH
REF_FRAME      = TEME
TIME_SYSTEM    = UTC
MEAN_ELEMENT_THEORY = SGP/SGP4

EPOCH          = 2026-04-03T06:22:22.509984
MEAN_MOTION    = 15.80882898
ECCENTRICITY   = .00011509
INCLINATION    = 53.1575
RA_OF_ASC_NODE = 158.4922
ARG_OF_PERICENTER = 65.2172
MEAN_ANOMALY   = 294.8970

EPHEMERIS_TYPE = 0
CLASSIFICATION_TYPE = U
NORAD_CAT_ID   = 68188
ELEMENT_SET_NO = 999
REV_AT_EPOCH   = 426
BSTAR          = .56044428E-3
MEAN_MOTION_DOT = .111402E-2
MEAN_MOTION_DDOT = 0

CCSDS_OMM_VERS = 2.0
CREATION_DATE  = 
ORIGINATOR     = 

OBJECT_NAME    = STARLINK-36305
OBJECT_ID      = 2026-050Y
CENTER_NAME    = EARTH
REF_FRAME      = TEME
TIME_SYSTEM    = UTC
MEAN_ELEMENT_THEORY = SGP/SGP4

EPOCH          = 2026-04-03T06:21:17.702208
MEAN_MOTION    = 15.80890474
ECCENTRICITY   = .00012303
INCLINATION    = 53.1572
RA_OF_ASC_NODE = 158.4879
ARG_OF_PERICENTER = 62.2671
MEAN_ANOMALY   = 297.8477

EPHEMERIS_TYPE = 0
CLASSIFICATION_TYPE = U
NORAD_CAT_ID   = 68189
ELEMENT_SET_NO = 999
REV_AT_EPOCH   = 426
BSTAR          = .87099983E-3
MEAN_MOTION_DOT = .174873E-2
MEAN_MOTION_DDOT = 0

CCSDS_OMM_VERS = 2.0
CREATION_DATE  = 
ORIGINATOR     = 

OBJECT_NAME    = STARLINK-37071
OBJECT_ID      = 2026-050Z
CENTER_NAME    = EARTH
REF_FRAME      = TEME
TIME_SYSTEM    = UTC
MEAN_ELEMENT_THEORY = SGP/SGP4

EPOCH          = 2026-04-03T06:19:07.760064
MEAN_MOTION    = 15.80895572
ECCENTRICITY   = .00011136
INCLINATION    = 53.1574
RA_OF_ASC_NODE = 158.4772
ARG_OF_PERICENTER = 86.7199
MEAN_ANOMALY   = 273.3951

EPHEMERIS_TYPE = 0
CLASSIFICATION_TYPE = U
NORAD_CAT_ID   = 68190
ELEMENT_SET_NO = 999
REV_AT_EPOCH   = 436
BSTAR          = .52262934E-3
MEAN_MOTION_DOT = .103807E-2
MEAN_MOTION_DDOT = 0

