STARLINK-37052          
1 68179U 26050N   26093.27228989  .00158364  00000+0  79001-3 0  9997
2 68179  53.1573 158.5382 0001770  51.4320 308.6861 15.80906756  4361
STARLINK-37035          
1 68180U 26050P   26093.27154116  .00128685  00000+0  64539-3 0  9992
2 68180  53.1574 158.5332 0001388  98.2172 261.9008 15.80888126  4362
STARLINK-37032          
1 68181U 26050Q   26093.27079081  .00024515  00000+0  12747-3 0  9991
2 68181  53.1577 158.5283 0001911  68.3724 291.7502 15.80858995  4365
STARLINK-37082          
1 68182U 26050R   26093.27003967  .00136113  00000+0  68158-3 0  9997
2 68182  53.1576 158.5226 0001272  84.9456 275.1712 15.80896933  4361
STARLINK-37102          
1 68183U 26050S   26093.26928656  .00109557  00000+0  55073-3 0  9992
2 68183  53.1574 158.5175 0001174  91.1928 268.9230 15.80906613  4360
STARLINK-36964          
1 68184U 26050T   26093.26853897  .00142934  00000+0  71478-3 0  9990
2 68184  53.1574 158.5125 0001187  66.9473 293.1675 15.80903430  4362
STARLINK-37061          
1 68185U 26050U   26093.26779280  .00000610  00000+0  66445-5 0  9998
2 68185  53.1579 158.5077 0001213  68.6405 291.4747 15.80828120  4361
STARLINK-37079          
1 68186U 26050V   26093.26704141  .00057255  00000+0  29197-3 0  9991
2 68186  53.1576 158.5028 0001133  70.6819 289.4326 15.80852334  4362
STARLINK-37006          
1 68187U 26050W   26093.26628932  .00064388  00000+0  32764-3 0  9994
2 68187  53.1575 158.4976 0001024  69.8402 290.2730 15.80852752  4363
STARLINK-36340          
1 68188U 26050X   26093.26553831  .00111402  00000+0  56044-3 0  9997
2 68188  53.1575 158.4922 0001150  65.2172 294.8970 15.80882898  4268
STARLINK-36305          
1 68189U 26050Y   26093.26478822  .00174873  00000+0  87100-3 0  9992
2 68189  53.1572 158.4879 0001230  62.2671 297.8477 15.80890474  4261
STARLINK-37071          
1 68190U 26050Z   26093.26328426  .00103807  00000+0  52263-3 0  9999
2 68190  53.1574 158.4772 0001113  86.7199 273.3951 15.80895572  4364
